[{"CCSDS_OMM_VERS":"2.0","COMMENT":"GENERATED VIA SPACE-TRACK.ORG API","CREATION_DATE":"2020-12-13T04:10:27","ORIGINATOR":"18 SPCS","OBJECT_NAME":"ONEWEB-0027","OBJECT_ID":"2020-020J","CENTER_NAME":"EARTH","REF_FRAME":"TEME","TIME_SYSTEM":"UTC","MEAN_ELEMENT_THEORY":"SGP4","EPOCH":"2020-12-12T22:00:00.999936","MEAN_MOTION":"14.89803954","ECCENTRICITY":"0.00288080","INCLINATION":"87.5669","RA_OF_ASC_NODE":"54.7572","ARG_OF_PERICENTER":"59.9533","MEAN_ANOMALY":"93.6542","EPHEMERIS_TYPE":"0","CLASSIFICATION_TYPE":"U","NORAD_CAT_ID":"45432","ELEMENT_SET_NO":"999","REV_AT_EPOCH":"177","BSTAR":"-0.00278940000000","MEAN_MOTION_DOT":"-0.00026804","MEAN_MOTION_DDOT":"0.0000000000000","SEMIMAJOR_AXIS":"6976.684","PERIOD":"96.657","APOAPSIS":"618.648","PERIAPSIS":"578.451","OBJECT_TYPE":"PAYLOAD","RCS_SIZE":"LARGE","COUNTRY_CODE":"UK","LAUNCH_DATE":"2020-03-21","SITE":"TTMTR","DECAY_DATE":null,"FILE":"2902033","GP_ID":"167663890","TLE_LINE0":"0 ONEWEB-0027","TLE_LINE1":"1 45432U 20020J   20347.91667824 -.00026804 +00000-0 -27894-2 0  9995","TLE_LINE2":"2 45432 087.5669 054.7572 0028808 059.9533 093.6542 14.89803954001776"},{"CCSDS_OMM_VERS":"2.0","COMMENT":"GENERATED VIA SPACE-TRACK.ORG API","CREATION_DATE":"2020-12-13T05:18:45","ORIGINATOR":"18 SPCS","OBJECT_NAME":"ONEWEB-0027","OBJECT_ID":"2020-020J","CENTER_NAME":"EARTH","REF_FRAME":"TEME","TIME_SYSTEM":"UTC","MEAN_ELEMENT_THEORY":"SGP4","EPOCH":"2020-12-13T00:00:00.999648","MEAN_MOTION":"14.89771491","ECCENTRICITY":"0.00287810","INCLINATION":"87.5669","RA_OF_ASC_NODE":"54.7315","ARG_OF_PERICENTER":"59.6648","MEAN_ANOMALY":"180.5909","EPHEMERIS_TYPE":"0","CLASSIFICATION_TYPE":"U","NORAD_CAT_ID":"45432","ELEMENT_SET_NO":"999","REV_AT_EPOCH":"175","BSTAR":"0.00406180000000","MEAN_MOTION_DOT":"0.00039430","MEAN_MOTION_DDOT":"0.0000000000000","SEMIMAJOR_AXIS":"6976.785","PERIOD":"96.659","APOAPSIS":"618.730","PERIAPSIS":"578.571","OBJECT_TYPE":"PAYLOAD","RCS_SIZE":"LARGE","COUNTRY_CODE":"UK","LAUNCH_DATE":"2020-03-21","SITE":"TTMTR","DECAY_DATE":null,"FILE":"2902034","GP_ID":"167686804","TLE_LINE0":"0 ONEWEB-0027","TLE_LINE1":"1 45432U 20020J   20348.00001157  .00039430  00000-0  40618-2 0  9993","TLE_LINE2":"2 45432  87.5669  54.7315 0028781  59.6648 180.5909 14.89771491  1756"},{"CCSDS_OMM_VERS":"2.0","COMMENT":"GENERATED VIA SPACE-TRACK.ORG API","CREATION_DATE":"2020-12-13T06:36:09","ORIGINATOR":"18 SPCS","OBJECT_NAME":"ONEWEB-0027","OBJECT_ID":"2020-020J","CENTER_NAME":"EARTH","REF_FRAME":"TEME","TIME_SYSTEM":"UTC","MEAN_ELEMENT_THEORY":"SGP4","EPOCH":"2020-12-13T06:00:00.999648","MEAN_MOTION":"14.89821357","ECCENTRICITY":"0.00286520","INCLINATION":"87.5668","RA_OF_ASC_NODE":"54.6541","ARG_OF_PERICENTER":"58.7891","MEAN_ANOMALY":"81.3610","EPHEMERIS_TYPE":"0","CLASSIFICATION_TYPE":"U","NORAD_CAT_ID":"45432","ELEMENT_SET_NO":"999","REV_AT_EPOCH":"3987","BSTAR":"-0.00401000000000","MEAN_MOTION_DOT":"-0.00038495","MEAN_MOTION_DDOT":"0.0000000000000","SEMIMAJOR_AXIS":"6976.630","PERIOD":"96.655","APOAPSIS":"618.484","PERIAPSIS":"578.505","OBJECT_TYPE":"PAYLOAD","RCS_SIZE":"LARGE","COUNTRY_CODE":"UK","LAUNCH_DATE":"2020-03-21","SITE":"TTMTR","DECAY_DATE":null,"FILE":"2902095","GP_ID":"167689856","TLE_LINE0":"0 ONEWEB-0027","TLE_LINE1":"1 45432U 20020J   20348.25001157 -.00038495  00000-0 -40100-2 0  9998","TLE_LINE2":"2 45432  87.5668  54.6541 0028652  58.7891  81.3610 14.89821357 39870"},{"CCSDS_OMM_VERS":"2.0","COMMENT":"GENERATED VIA SPACE-TRACK.ORG API","CREATION_DATE":"2020-12-13T20:07:11","ORIGINATOR":"18 SPCS","OBJECT_NAME":"ONEWEB-0027","OBJECT_ID":"2020-020J","CENTER_NAME":"EARTH","REF_FRAME":"TEME","TIME_SYSTEM":"UTC","MEAN_ELEMENT_THEORY":"SGP4","EPOCH":"2020-12-13T08:00:01.000224","MEAN_MOTION":"14.89827740","ECCENTRICITY":"0.00285900","INCLINATION":"87.5667","RA_OF_ASC_NODE":"54.6279","ARG_OF_PERICENTER":"58.4456","MEAN_ANOMALY":"168.3446","EPHEMERIS_TYPE":"0","CLASSIFICATION_TYPE":"U","NORAD_CAT_ID":"45432","ELEMENT_SET_NO":"999","REV_AT_EPOCH":"177","BSTAR":"-0.00649610000000","MEAN_MOTION_DOT":"-0.00062182","MEAN_MOTION_DDOT":"0.0000000000000","SEMIMAJOR_AXIS":"6976.610","PERIOD":"96.655","APOAPSIS":"618.421","PERIAPSIS":"578.529","OBJECT_TYPE":"PAYLOAD","RCS_SIZE":"LARGE","COUNTRY_CODE":"UK","LAUNCH_DATE":"2020-03-21","SITE":"TTMTR","DECAY_DATE":null,"FILE":"2902446","GP_ID":"167718081","TLE_LINE0":"0 ONEWEB-0027","TLE_LINE1":"1 45432U 20020J   20348.33334491 -.00062182  00000-0 -64961-2 0  9998","TLE_LINE2":"2 45432  87.5667  54.6279 0028590  58.4456 168.3446 14.89827740  1775"},{"CCSDS_OMM_VERS":"2.0","COMMENT":"GENERATED VIA SPACE-TRACK.ORG API","CREATION_DATE":"2020-12-13T22:36:10","ORIGINATOR":"18 SPCS","OBJECT_NAME":"ONEWEB-0027","OBJECT_ID":"2020-020J","CENTER_NAME":"EARTH","REF_FRAME":"TEME","TIME_SYSTEM":"UTC","MEAN_ELEMENT_THEORY":"SGP4","EPOCH":"2020-12-13T22:00:00.999936","MEAN_MOTION":"14.89802500","ECCENTRICITY":"0.00286800","INCLINATION":"87.5665","RA_OF_ASC_NODE":"54.4486","ARG_OF_PERICENTER":"56.6228","MEAN_ANOMALY":"56.6482","EPHEMERIS_TYPE":"0","CLASSIFICATION_TYPE":"U","NORAD_CAT_ID":"45432","ELEMENT_SET_NO":"999","REV_AT_EPOCH":"3997","BSTAR":"-0.00245710000000","MEAN_MOTION_DOT":"-0.00023615","MEAN_MOTION_DDOT":"0.0000000000000","SEMIMAJOR_AXIS":"6976.689","PERIOD":"96.657","APOAPSIS":"618.563","PERIAPSIS":"578.545","OBJECT_TYPE":"PAYLOAD","RCS_SIZE":"LARGE","COUNTRY_CODE":"UK","LAUNCH_DATE":"2020-03-21","SITE":"TTMTR","DECAY_DATE":null,"FILE":"2902523","GP_ID":"167742665","TLE_LINE0":"0 ONEWEB-0027","TLE_LINE1":"1 45432U 20020J   20348.91667824 -.00023615  00000-0 -24571-2 0  9992","TLE_LINE2":"2 45432  87.5665  54.4486 0028680  56.6228  56.6482 14.89802500 39977"},{"CCSDS_OMM_VERS":"2.0","COMMENT":"GENERATED VIA SPACE-TRACK.ORG API","CREATION_DATE":"2020-12-14T03:53:25","ORIGINATOR":"18 SPCS","OBJECT_NAME":"ONEWEB-0027","OBJECT_ID":"2020-020J","CENTER_NAME":"EARTH","REF_FRAME":"TEME","TIME_SYSTEM":"UTC","MEAN_ELEMENT_THEORY":"SGP4","EPOCH":"2020-12-14T00:00:00.999648","MEAN_MOTION":"14.89771123","ECCENTRICITY":"0.00286430","INCLINATION":"87.5665","RA_OF_ASC_NODE":"54.4229","ARG_OF_PERICENTER":"56.3212","MEAN_ANOMALY":"143.5975","EPHEMERIS_TYPE":"0","CLASSIFICATION_TYPE":"U","NORAD_CAT_ID":"45432","ELEMENT_SET_NO":"999","REV_AT_EPOCH":"175","BSTAR":"0.00420690000000","MEAN_MOTION_DOT":"0.00040842","MEAN_MOTION_DDOT":"0.0000000000000","SEMIMAJOR_AXIS":"6976.787","PERIOD":"96.659","APOAPSIS":"618.635","PERIAPSIS":"578.668","OBJECT_TYPE":"PAYLOAD","RCS_SIZE":"LARGE","COUNTRY_CODE":"UK","LAUNCH_DATE":"2020-03-21","SITE":"TTMTR","DECAY_DATE":null,"FILE":"2902641","GP_ID":"167765872","TLE_LINE0":"0 ONEWEB-0027","TLE_LINE1":"1 45432U 20020J   20349.00001157  .00040842  00000-0  42069-2 0  9995","TLE_LINE2":"2 45432  87.5665  54.4229 0028643  56.3212 143.5975 14.89771123  1755"},{"CCSDS_OMM_VERS":"2.0","COMMENT":"GENERATED VIA SPACE-TRACK.ORG API","CREATION_DATE":"2020-12-14T14:36:10","ORIGINATOR":"18 SPCS","OBJECT_NAME":"ONEWEB-0027","OBJECT_ID":"2020-020J","CENTER_NAME":"EARTH","REF_FRAME":"TEME","TIME_SYSTEM":"UTC","MEAN_ELEMENT_THEORY":"SGP4","EPOCH":"2020-12-14T14:00:01.000224","MEAN_MOTION":"14.89768797","ECCENTRICITY":"0.00285500","INCLINATION":"87.5661","RA_OF_ASC_NODE":"54.2416","ARG_OF_PERICENTER":"54.1940","MEAN_ANOMALY":"32.1927","EPHEMERIS_TYPE":"0","CLASSIFICATION_TYPE":"U","NORAD_CAT_ID":"45432","ELEMENT_SET_NO":"999","REV_AT_EPOCH":"4007","BSTAR":"0.00589900000000","MEAN_MOTION_DOT":"0.00057385","MEAN_MOTION_DDOT":"0.0000000000000","SEMIMAJOR_AXIS":"6976.794","PERIOD":"96.659","APOAPSIS":"618.578","PERIAPSIS":"578.740","OBJECT_TYPE":"PAYLOAD","RCS_SIZE":"LARGE","COUNTRY_CODE":"UK","LAUNCH_DATE":"2020-03-21","SITE":"TTMTR","DECAY_DATE":null,"FILE":"2902887","GP_ID":"167793924","TLE_LINE0":"0 ONEWEB-0027","TLE_LINE1":"1 45432U 20020J   20349.58334491  .00057385  00000-0  58990-2 0  9998","TLE_LINE2":"2 45432  87.5661  54.2416 0028550  54.1940  32.1927 14.89768797 40079"},{"CCSDS_OMM_VERS":"2.0","COMMENT":"GENERATED VIA SPACE-TRACK.ORG API","CREATION_DATE":"2020-12-15T06:36:09","ORIGINATOR":"18 SPCS","OBJECT_NAME":"ONEWEB-0027","OBJECT_ID":"2020-020J","CENTER_NAME":"EARTH","REF_FRAME":"TEME","TIME_SYSTEM":"UTC","MEAN_ELEMENT_THEORY":"SGP4","EPOCH":"2020-12-15T06:00:00.999648","MEAN_MOTION":"14.89821185","ECCENTRICITY":"0.00284660","INCLINATION":"87.5657","RA_OF_ASC_NODE":"54.0366","ARG_OF_PERICENTER":"51.9555","MEAN_ANOMALY":"7.5209","EPHEMERIS_TYPE":"0","CLASSIFICATION_TYPE":"U","NORAD_CAT_ID":"45432","ELEMENT_SET_NO":"999","REV_AT_EPOCH":"4017","BSTAR":"-0.00395140000000","MEAN_MOTION_DOT":"-0.00037931","MEAN_MOTION_DDOT":"0.0000000000000","SEMIMAJOR_AXIS":"6976.630","PERIOD":"96.655","APOAPSIS":"618.355","PERIAPSIS":"578.636","OBJECT_TYPE":"PAYLOAD","RCS_SIZE":"LARGE","COUNTRY_CODE":"UK","LAUNCH_DATE":"2020-03-21","SITE":"TTMTR","DECAY_DATE":null,"FILE":"2903190","GP_ID":"167821419","TLE_LINE0":"0 ONEWEB-0027","TLE_LINE1":"1 45432U 20020J   20350.25001157 -.00037931  00000-0 -39514-2 0  9992","TLE_LINE2":"2 45432  87.5657  54.0366 0028466  51.9555   7.5209 14.89821185 40170"}]